[{"OBJECT_NAME":"STARLINK-31300","OBJECT_ID":"2024-020C","EPOCH":"2026-03-09T22:45:50.138208","MEAN_MOTION":15.30221885,"ECCENTRICITY":9.858e-5,"INCLINATION":53.1619,"RA_OF_ASC_NODE":321.0131,"ARG_OF_PERICENTER":66.7305,"MEAN_ANOMALY":293.38,"EPHEMERIS_TYPE":0,"CLASSIFICATION_TYPE":"U","NORAD_CAT_ID":58878,"ELEMENT_SET_NO":999,"REV_AT_EPOCH":11811,"BSTAR":-0.00025098982,"MEAN_MOTION_DOT":-7.79e-5,"MEAN_MOTION_DDOT":0},{"OBJECT_NAME":"COSMOS 2251 DEB","OBJECT_ID":"1993-036BXP","EPOCH":"2026-03-04T07:23:49.847712","MEAN_MOTION":15.24789556,"ECCENTRICITY":0.00190834,"INCLINATION":73.9759,"RA_OF_ASC_NODE":64.3004,"ARG_OF_PERICENTER":239.4537,"MEAN_ANOMALY":120.4779,"EPHEMERIS_TYPE":0,"CLASSIFICATION_TYPE":"U","NORAD_CAT_ID":47059,"ELEMENT_SET_NO":999,"REV_AT_EPOCH":9543,"BSTAR":0.0048704033,"MEAN_MOTION_DOT":0.00123422,"MEAN_MOTION_DDOT":0}]
